NORAD_CAT_ID,OBJECT_NAME,OBJECT_TYPE,EPOCH,MEAN_MOTION,ECCENTRICITY,INCLINATION,RA_OF_ASC_NODE,ARG_OF_PERICENTER,MEAN_ANOMALY,BSTAR,MEAN_MOTION_DOT,MEAN_MOTION_DDOT,TLE_LINE0,TLE_LINE1,TLE_LINE2,SEMIMAJOR_AXIS,PERIOD,APOGEE,PERIGEE,DECAYED
52846.0,STARLINK-4212,PAYLOAD,2024-04-24 14:20:54,15.08850857,0.0001647,53.2185,225.1393,110.1071,250.0098,0.0004485,6.859e-05,0.0,0 STARLINK-4212,1 52846U 22062S   24115.59785323  .00006859  00000-0  44850-3 0  9994,2 52846  53.2185 225.1393 0001647 110.1071 250.0098 15.08850857102515,6917.847,95.437,540.852,538.573,0.0
52846.0,STARLINK-4212,PAYLOAD,2024-04-25 12:36:18,15.08845436,0.0001752,53.2185,220.9798,116.8272,243.2899,0.00025541,3.78e-05,0.0,0 STARLINK-4212,1 52846U 22062S   24116.52521206  .00003780  00000-0  25541-3 0  9992,2 52846  53.2185 220.9798 0001752 116.8272 243.2899 15.08845436103140,6917.864,95.437,540.941,538.517,0.0
52846.0,STARLINK-4212,PAYLOAD,2024-04-26 12:27:05,15.08844953,0.0001833,53.2172,216.5137,56.8512,303.2656,0.00017281,2.464e-05,0.0,0 STARLINK-4212,1 52846U 22062S   24117.51881522  .00002464  00000-0  17281-3 0  9992,2 52846  53.2172 216.5137 0001833  56.8512 303.2656 15.08844953103291,6917.865,95.437,540.998,538.462,0.0
52846.0,STARLINK-4212,PAYLOAD,2024-04-26 14:02:28,15.08850436,0.0001756,53.2179,216.2191,68.1632,291.9547,0.00028823,4.303e-05,0.0,0 STARLINK-4212,1 52846U 22062S   24117.58505305  .00004303  00000-0  28823-3 0  9999,2 52846  53.2179 216.2191 0001756  68.1632 291.9547 15.08850436102810,6917.848,95.437,540.928,538.499,0.0
52846.0,STARLINK-4212,PAYLOAD,2024-04-26 15:37:51,15.08860389,0.000162,53.2177,215.9169,101.0809,259.0366,0.00057326,8.852e-05,0.0,0 STARLINK-4212,1 52846U 22062S   24117.65128837  .00008852  00000-0  57326-3 0  9991,2 52846  53.2177 215.9169 0001620 101.0809 259.0366 15.08860389103310,6917.818,95.436,540.804,538.562,0.0
52846.0,STARLINK-4212,PAYLOAD,2024-04-27 12:17:52,15.08848456,0.0001868,53.2174,212.0551,80.1056,280.0147,0.00013836,1.915e-05,0.0,0 STARLINK-4212,1 52846U 22062S   24118.51240749  .00001915  00000-0  13836-3 0  9995,2 52846  53.2174 212.0551 0001868  80.1056 280.0147 15.08848456103441,6917.855,95.437,541.012,538.427,0.0
52846.0,STARLINK-4212,PAYLOAD,2024-04-27 13:53:14,15.08861015,0.0001431,53.2165,211.7577,78.4071,281.7082,0.000405,6.167e-05,0.0,0 STARLINK-4212,1 52846U 22062S   24118.57864198  .00006167  00000-0  40500-3 0  9993,2 52846  53.2165 211.7577 0001431  78.4071 281.7082 15.08861015102966,6917.816,95.436,540.671,538.691,0.0
52846.0,STARLINK-4212,PAYLOAD,2024-04-28 05:47:07,15.08814659,0.0001142,53.2177,208.7825,99.0844,261.0278,-0.00065775,-0.00010733,0.0,0 STARLINK-4212,1 52846U 22062S   24119.24105701 -.00010733  00000-0 -65775-3 0  9993,2 52846  53.2177 208.7825 0001142  99.0844 261.0278 15.08814659103553,6917.958,95.439,540.613,539.033,0.0
52846.0,STARLINK-4212,PAYLOAD,2024-04-28 12:08:39,15.08822544,0.0001214,53.2149,207.5951,100.3545,259.7584,-0.0003926,-6.528e-05,0.0,0 STARLINK-4212,1 52846U 22062S   24119.50601795 -.00006528  00000-0 -39260-3 0  9993,2 52846  53.2149 207.5951 0001214 100.3545 259.7584 15.08822544103593,6917.934,95.439,540.639,538.959,0.0
52846.0,STARLINK-4212,PAYLOAD,2024-04-29 11:59:26,15.08846796,0.0001395,53.2162,203.1336,87.3429,272.7723,0.00011632,1.564e-05,0.0,0 STARLINK-4212,1 52846U 22062S   24120.49961478  .00001564  00000-0  11632-3 0  9996,2 52846  53.2162 203.1336 0001395  87.3429 272.7723 15.08846796103744,6917.86,95.437,540.69,538.76,0.0
52846.0,STARLINK-4212,PAYLOAD,2024-04-30 05:28:41,15.08845544,0.0001412,53.2156,199.8626,91.833,268.2824,0.00047753,7.321e-05,0.0,0 STARLINK-4212,1 52846U 22062S   24121.22825954  .00007321  00000-0  47753-3 0  9996,2 52846  53.2156 199.8626 0001412  91.8330 268.2824 15.08845544103855,6917.863,95.437,540.705,538.752,0.0
52846.0,STARLINK-4212,PAYLOAD,2024-04-30 11:50:13,15.08859143,0.0001401,53.2157,198.6727,91.0125,269.1027,0.00057277,8.844e-05,0.0,0 STARLINK-4212,1 52846U 22062S   24121.49321483  .00008844  00000-0  57277-3 0  9996,2 52846  53.2157 198.6727 0001401  91.0125 269.1027 15.08859143103403,6917.822,95.436,540.656,538.718,0.0
52846.0,STARLINK-4212,PAYLOAD,2024-05-01 11:41:00,15.08851157,0.0001097,53.2149,194.2146,79.0422,281.0693,0.00046654,7.147e-05,0.0,0 STARLINK-4212,1 52846U 22062S   24122.48681176  .00007147  00000-0  46654-3 0  9996,2 52846  53.2149 194.2146 0001097  79.0422 281.0693 15.08851157104048,6917.846,95.437,540.47,538.952,0.0
52846.0,STARLINK-4212,PAYLOAD,2024-05-01 21:13:19,15.08854686,5.5e-05,53.2145,192.4289,36.5345,323.5684,0.00036918,5.595e-05,0.0,0 STARLINK-4212,1 52846U 22062S   24122.88424847  .00005595  00000-0  36918-3 0  9997,2 52846  53.2145 192.4289 0000550  36.5345 323.5684 15.08854686103611,6917.836,95.437,540.081,539.32,0.0
52846.0,STARLINK-4212,PAYLOAD,2024-05-02 05:10:15,15.0883914,0.0001535,53.2161,190.9433,95.8231,264.2936,-2.7285e-05,-7.22e-06,0.0,0 STARLINK-4212,1 52846U 22062S   24123.21545449 -.00000722  00000-0 -27285-4 0  9994,2 52846  53.2161 190.9433 0001535  95.8231 264.2936 15.08839140104158,6917.883,95.438,540.81,538.686,0.0
52846.0,STARLINK-4212,PAYLOAD,2024-05-02 11:31:47,15.088404,0.0001375,53.2164,189.7543,94.2705,265.8444,-1.8385e-05,-5.81e-06,0.0,0 STARLINK-4212,1 52846U 22062S   24123.48041457 -.00000581  00000-0 -18385-4 0  9997,2 52846  53.2164 189.7543 0001375  94.2705 265.8444 15.08840400103702,6917.879,95.438,540.695,538.793,0.0
52846.0,STARLINK-4212,PAYLOAD,2024-05-03 03:25:38,15.08857444,0.0001352,53.2149,186.7783,89.3118,270.8029,-0.00015217,-2.71e-05,0.0,0 STARLINK-4212,1 52846U 22062S   24124.14280743 -.00002710  00000-0 -15217-3 0  9990,2 52846  53.2149 186.7783 0001352  89.3118 270.8029 15.08857444104292,6917.827,95.436,540.627,538.757,0.0
52846.0,STARLINK-4212,PAYLOAD,2024-05-03 11:22:34,15.08863549,0.0001295,53.2151,185.2924,92.6248,267.4892,0.0008307,0.00012966,0.0,0 STARLINK-4212,1 52846U 22062S   24124.47400780  .00012966  00000-0  83070-3 0  9995,2 52846  53.2151 185.2924 0001295  92.6248 267.4892 15.08863549103857,6917.808,95.436,540.569,538.778,0.0
52846.0,STARLINK-4212,PAYLOAD,2024-05-03 20:54:53,15.08847253,0.0001185,53.2153,183.508,96.9727,263.14,-3.6951e-05,-8.76e-06,0.0,0 STARLINK-4212,1 52846U 22062S   24124.87144792 -.00000876  00000-0 -36951-4 0  9993,2 52846  53.2153 183.5080 0001185  96.9727 263.1400 15.08847253103919,6917.858,95.437,540.543,538.903,0.0
52846.0,STARLINK-4212,PAYLOAD,2024-05-04 03:16:25,15.08839515,0.0001873,53.2146,182.3215,96.7193,263.4012,-0.0003015,-5.083e-05,0.0,0 STARLINK-4212,1 52846U 22062S   24125.13641140 -.00005083  00000-0 -30150-3 0  9991,2 52846  53.2146 182.3215 0001873  96.7193 263.4012 15.08839515104440,6917.882,95.438,541.043,538.451,0.0
52846.0,STARLINK-4212,PAYLOAD,2024-05-04 12:48:45,15.0882059,0.0001238,53.2148,180.5343,102.4443,257.6688,-6.1281e-05,-1.262e-05,0.0,0 STARLINK-4212,1 52846U 22062S   24125.53385980 -.00001262  00000-0 -61281-4 0  9997,2 52846  53.2148 180.5343 0001238 102.4443 257.6688 15.08820590104506,6917.94,95.439,540.661,538.948,0.0
52846.0,STARLINK-4212,PAYLOAD,2024-05-05 11:04:10,15.08837379,0.0001229,53.2147,176.3706,102.8706,257.2424,0.00094356,0.0001476,0.0,0 STARLINK-4212,1 52846U 22062S   24126.46123112  .00014760  00000-0  94356-3 0  9990,2 52846  53.2147 176.3706 0001229 102.8706 257.2424 15.08837379104649,6917.888,95.438,540.604,538.903,0.0
52846.0,STARLINK-4212,PAYLOAD,2024-05-05 20:36:29,15.08847012,0.000128,53.2152,174.5868,101.2127,258.9009,0.00096019,0.00015029,0.0,0 STARLINK-4212,1 52846U 22062S   24126.85867119  .00015029  00000-0  96019-3 0  9992,2 52846  53.2152 174.5868 0001280 101.2127 258.9009 15.08847012104216,6917.859,95.437,540.609,538.838,0.0
52846.0,STARLINK-4212,PAYLOAD,2024-05-06 09:19:33,15.08867433,0.0001262,53.2148,172.2077,101.2553,258.8581,0.0012269,0.00019307,0.0,0 STARLINK-4212,1 52846U 22062S   24127.38858513  .00019307  00000-0  12269-2 0  9996,2 52846  53.2148 172.2077 0001262 101.2553 258.8581 15.08867433104292,6917.797,95.436,540.535,538.789,0.0
52846.0,STARLINK-4212,PAYLOAD,2024-05-06 20:27:15,15.0885918,0.0001238,53.214,170.1265,94.262,265.8513,0.00051594,7.937e-05,0.0,0 STARLINK-4212,1 52846U 22062S   24127.85226195  .00007937  00000-0  51594-3 0  9994,2 52846  53.2140 170.1265 0001238  94.2620 265.8513 15.08859180104854,6917.822,95.436,540.543,538.83,0.0
52846.0,STARLINK-4212,PAYLOAD,2024-05-07 12:21:06,15.08854821,0.0001353,53.2152,167.153,91.6936,268.4211,0.00024721,3.65e-05,0.0,0 STARLINK-4212,1 52846U 22062S   24128.51465863  .00003650  00000-0  24721-3 0  9995,2 52846  53.2152 167.1530 0001353  91.6936 268.4211 15.08854821104959,6917.835,95.437,540.636,538.764,0.0
52846.0,STARLINK-4212,PAYLOAD,2024-05-08 02:39:34,15.0884414,0.0001419,53.2144,164.4731,95.3726,264.7428,-2.7527e-05,-7.26e-06,0.0,0 STARLINK-4212,1 52846U 22062S   24129.11082073 -.00000726  00000-0 -27527-4 0  9991,2 52846  53.2144 164.4731 0001419  95.3726 264.7428 15.08844140105047,6917.868,95.437,540.714,538.751,0.0
52846.0,STARLINK-4212,PAYLOAD,2024-05-08 09:01:07,15.08838443,0.0001367,53.2145,163.2844,96.3183,263.7964,-0.00011921,-2.185e-05,0.0,0 STARLINK-4212,1 52846U 22062S   24129.37578371 -.00002185  00000-0 -11921-3 0  9991,2 52846  53.2145 163.2844 0001367  96.3183 263.7964 15.08838443104592,6917.885,95.438,540.696,538.804,0.0
52846.0,STARLINK-4212,PAYLOAD,2024-05-09 05:41:07,15.08848697,0.0001265,53.2155,159.4169,98.1901,261.9235,9.6909e-05,1.255e-05,0.0,0 STARLINK-4212,1 52846U 22062S   24130.23689484  .00001255  00000-0  96909-4 0  9991,2 52846  53.2155 159.4169 0001265  98.1901 261.9235 15.08848697105218,6917.854,95.437,540.594,538.844,0.0
52846.0,STARLINK-4212,PAYLOAD,2024-05-09 10:27:16,15.08850776,0.0001354,53.2158,158.5229,103.0134,257.101,0.0001769,2.529e-05,0.0,0 STARLINK-4212,1 52846U 22062S   24130.43561086  .00002529  00000-0  17690-3 0  9994,2 52846  53.2158 158.5229 0001354 103.0134 257.1010 15.08850776104758,6917.847,95.437,540.649,538.776,0.0
